SENTINEL-2B             
1 42063U 17013A   20208.45928859 -.00000111  00000-0 -25844-4 0  9991
2 42063  98.5695 282.1405 0001418  94.4159 265.7202 14.30814977176953
